#aV2006  1 21  0  0   .00000000      96 DD+AD WGS84 FIT  NGA
## 1358 518400.00000000   900.00000000 53756  .0000000000000
+   29     1  2  3  4  5  6  7  8  9 10 11 13 14 15 16 17 18
+         19 20 21 22 23 24 25 26 27 28 29 30  0  0  0  0  0
+          0  0  0  0  0  0  0  0  0  0  0  0  0  0  0  0  0
+          0  0  0  0  0  0  0  0  0  0  0  0  0  0  0  0  0
+          0  0  0  0  0  0  0  0  0  0  0  0  0  0  0  0  0
++         0  0  0  0  0  0  0  0  0  0  0  0  0  0  0  0  0
++         0  0  0  0  0  0  0  0  0  0  0  0  0  0  0  0  0
++         0  0  0  0  0  0  0  0  0  0  0  0  0  0  0  0  0
++         0  0  0  0  0  0  0  0  0  0  0  0  0  0  0  0  0
++         0  0  0  0  0  0  0  0  0  0  0  0  0  0  0  0  0
%c cc cc ccc ccc cccc cccc cccc cccc ccccc ccccc ccccc ccccc
%c cc cc ccc ccc cccc cccc cccc cccc ccccc ccccc ccccc ccccc
%f  0.0000000  0.000000000  0.00000000000  0.000000000000000
%f  0.0000000  0.000000000  0.00000000000  0.000000000000000
%i    0    0    0    0      0      0      0      0         0
%i    0    0    0    0      0      0      0      0         0
/*      NGA, ST. LOUIS,MO.                                  
/*   EPHEMERIS COMPUTED FROM  3 DAYS OF DATA                
/* CCCCCCCCCCCCCCCCCCCCCCCCCCCCCCCCCCCCCCCCCCCCCCCCCCCCCCCCC
/* CCCCCCCCCCCCCCCCCCCCCCCCCCCCCCCCCCCCCCCCCCCCCCCCCCCCCCCCC
*  2006  1 21 10  0   .00000000                                                 
P  1  15783.216791 -20589.883576  -5383.198148     32.524826                    
V  1  -1748.563598   7153.183742 -31366.457828       .020836                    
P  2 -16186.951783  12531.978876  16556.740747    -21.327227                    
V  2 -21712.442045  -1190.446658 -20161.762941       .012174                    
P  3  10944.188876 -23976.059910   1305.258572     68.354683                    
V  3   3148.411979   3317.929707  31098.101496       .031116                    
P  4 -24669.038608   6384.049351   8086.248927    124.982565                    
V  4 -10286.531544  -2357.867062 -29053.695294       .117867                    
P  5  12947.862891  22847.715759  -4726.300592    481.934916                    
V  5  -6102.526358  -2598.673867 -30364.286952       .143395                    
P  6  12219.750616  10746.326855  21170.616241    245.547842                    
V  6 -12084.807652  23664.778854  -5164.038701       .400548                    
P  7 -17398.970908  14528.445175 -13448.072021    476.782472                    
V  7   4546.029310 -17405.359244 -24182.999503       .096101                    
P  8 -26773.004506    503.239230   -586.464569    -54.203756                    
V  8   -562.059230  -2130.249714  31717.718414      -.011881                    
P  9   6509.554169  14734.801776 -21690.799552      4.451804                    
V  9 -26148.364462   2498.390146  -6015.600366       .015692                    
P 10  -2173.016008  19470.032168  17699.883348     77.439359                    
V 10 -13180.245891 -18580.545576  19036.339137       .005476                    
P 11  -8167.041488 -15014.633677 -20421.716687    300.853629                    
V 11  25466.217511  -5537.099784  -5884.469847       .029027                    
P 13 -11706.849043  -8778.400901  22095.294761     36.370089                    
V 13  13637.716589 -24622.114201  -2491.602122       .023239                    
P 14  17914.674955  -9811.720148 -16880.900381    -20.684926                    
V 14  -8901.850816  19658.322917 -20830.331661       .005925                    
P 15  26746.096343    956.954480    161.732144    553.299810                    
V 15   -487.704386   2563.490689  31459.259349       .060073                    
P 16   8417.127739 -14068.256705  20959.570304     22.793459                    
V 16  14735.873027  21973.626336   8949.955918       .016685                    
P 17 -18096.765514   7887.868545 -17755.706906     32.759857                    
V 17   8881.268050 -20774.238754 -18382.038936       .091563                    
P 18  18339.976706  15435.717062 -11653.003172   -216.127426                    
V 18   5489.303911  13967.544871  26635.964886      -.022564                    
P 19   4105.434255 -23283.514860 -11972.329729    -23.285149                    
V 19  10012.038801 -11927.096398  26443.187191       .007571                    
P 20 -12321.637896 -23313.401414  -3384.039279    -34.707062                    
V 20   4640.480322   1986.620375 -31314.731412       .009803                    
P 21  24246.799233   6660.187129   9348.635811     -1.901438                    
V 21 -11673.721426   2633.413946  28019.896116       .036394                    
P 22  17312.687487   2175.493622 -19863.858602     63.243551                    
V 22  11566.479434  22856.561640  12486.016283       .024565                    
P 23  -3792.682741 -19267.896246  17722.485820    153.653427                    
V 23  11901.271339 -19425.296625 -18627.740625      -.015964                    
P 24 -25941.876409  -3608.807688  -4892.936720     79.113661                    
V 24   6494.304529  -2505.213139 -30808.492912       .030249                    
P 25  21711.885432 -10978.593580  11175.830551   -248.492277                    
V 25  13783.132272    621.962753 -27043.581804      -.860000                    
P 26  -6941.625450  24029.050890  -8342.311429    -20.302889                    
V 26  -6839.223478   7913.754082  30352.583993      -.078906                    
P 27 -24221.353641  -5069.650782  10721.523836     32.445563                    
V 27  12340.969358  -3445.969246  27432.602170       .016325                    
P 28 -18402.759301  -5663.995029 -18179.759762     34.774942                    
V 28 -11080.167278 -20772.877161  17095.390697      -.006712                    
P 29  -9945.292599  24250.261270  -3124.521304    506.397057                    
V 29  -3940.040334   2821.581607  32129.716598       .135607                    
P 30  17571.257811  19322.868770   4876.383802     17.953279                    
V 30   1066.187405   7190.857302 -30496.458643       .042890                    
EOF
